0 FENGYUN 1C DEB
1 29855U 99025EZ  13280.87556947  .00001409  00000-0  10774-2 0  9938
2 29855 098.1814 335.8834 0227168 190.0558 234.0834 13.83334484339347
0 FENGYUN 1C DEB
1 29855U 99025EZ  13282.09830169  .00001557  00000-0  11875-2 0  9943
2 29855 098.1815 336.9486 0227210 186.7153 203.2695 13.83341122339513
0 FENGYUN 1C DEB
1 29855U 99025EZ  13283.11613361  .00001613  00000-0  12290-2 0  9956
2 29855 098.1815 337.8352 0227242 183.9347 232.0781 13.83344516339655
0 FENGYUN 1C DEB
1 29855U 99025EZ  13284.12345740  .00001646  00000-0  12541-2 0  9967
2 29855 098.1814 338.7128 0227281 181.1896 208.5595 13.83346785339793
0 FENGYUN 1C DEB
1 29855U 99025EZ  13285.43305738  .00001351  00000-0  10333-2 0  9976
2 29855 098.1812 339.8536 0227322 177.6088 250.4052 13.83351553339978
0 FENGYUN 1C DEB
1 29855U 99025EZ  13287.46995719  .00001567  00000-0  11944-2 0  9984
2 29855 098.1808 341.6281 0227344 172.0575 314.2552 13.83357422340253
0 FENGYUN 1C DEB
1 29855U 99025EZ  13288.82985950  .00001887  00000-0  14327-2 0  9995
2 29855 098.1805 342.8126 0227335 168.3578 246.6559 13.83363665340444
0 FENGYUN 1C DEB
1 29855U 99025EZ  13289.84458720  .00001757  00000-0  13352-2 0    04
2 29855 098.1802 343.6965 0227338 165.5823 260.0908 13.83368538340583
0 FENGYUN 1C DEB
1 29855U 99025EZ  13291.44902528  .00002067  00000-0  15661-2 0    14
2 29855 098.1803 345.0940 0227314 161.1565 330.4113 13.83372795340807
0 FENGYUN 1C DEB
1 29855U 99025EZ  13293.16111669  .00001798  00000-0  13653-2 0    23
2 29855 098.1798 346.5852 0227309 156.4837 216.8467 13.83379706341046
0 FENGYUN 1C DEB
1 29855U 99025EZ  13294.83549794  .00002287  00000-0  17296-2 0    34
2 29855 098.1796 348.0435 0227284 151.9152 275.5234 13.83384224341270
